[{"OBJECT_NAME":"STARLINK-30921","OBJECT_ID":"2023-178K","EPOCH":"2026-03-09T23:21:43.789536","MEAN_MOTION":15.30200692,"ECCENTRICITY":6.694e-5,"INCLINATION":53.1596,"RA_OF_ASC_NODE":359.8453,"ARG_OF_PERICENTER":112.5762,"MEAN_ANOMALY":247.5309,"EPHEMERIS_TYPE":0,"CLASSIFICATION_TYPE":"U","NORAD_CAT_ID":58383,"ELEMENT_SET_NO":999,"REV_AT_EPOCH":12991,"BSTAR":3.1812934e-5,"MEAN_MOTION_DOT":5.84e-6,"MEAN_MOTION_DDOT":0},{"OBJECT_NAME":"NUSAT-50 (NANCY ROMAN)","OBJECT_ID":"2024-149AB","EPOCH":"2026-03-09T19:15:16.765632","MEAN_MOTION":15.29713355,"ECCENTRICITY":0.00025229,"INCLINATION":97.3817,"RA_OF_ASC_NODE":150.7693,"ARG_OF_PERICENTER":238.0469,"MEAN_ANOMALY":122.0527,"EPHEMERIS_TYPE":0,"CLASSIFICATION_TYPE":"U","NORAD_CAT_ID":60493,"ELEMENT_SET_NO":999,"REV_AT_EPOCH":8693,"BSTAR":0.0004225155,"MEAN_MOTION_DOT":0.00012094,"MEAN_MOTION_DDOT":0}]
